{"type": "FeatureCollection", "features": [ {"type": "Feature", "properties": {"norad_id": 34327, "name": "COSMOS 2251 DEB", "group": "cosmos-2251-debris", "lat": 46.08688758593183, "lon": -172.02701263707462, "alt_km": 585.177145267382, "timestamp": "2025-12-13T08:49:16.085664+00:00", "meta": {"OBJECT_NAME": "COSMOS 2251 DEB", "OBJECT_ID": "1993-036NZ", "EPOCH": "2025-12-12T23:30:12.435840", "MEAN_MOTION": 14.89191333, "ECCENTRICITY": 0.00328335, "INCLINATION": 73.994, "RA_OF_ASC_NODE": 171.4036, "ARG_OF_PERICENTER": 347.7124, "MEAN_ANOMALY": 140.0703, "EPHEMERIS_TYPE": 0, "CLASSIFICATION_TYPE": "U", "NORAD_CAT_ID": 34327, "ELEMENT_SET_NO": 999, "REV_AT_EPOCH": 89511, "BSTAR": 0.001696839, "MEAN_MOTION_DOT": 0.00016204, "MEAN_MOTION_DDOT": 0}, "tle": {"line1": "1 34327U 93036NZ  25346.97931060  .00016204  00000+0  16968-2 0  9999", "line2": "2 34327  73.9940 171.4036 0032833 347.7124 140.0703 14.89191333895113"}}, "geometry": {"type": "Point", "coordinates": [-172.02701263707462, 46.08688758593183]}}, {"type": "Feature", "properties": {"norad_id": 34340, "name": "COSMOS 2251 DEB", "group": "cosmos-2251-debris", "lat": -45.270889561840846, "lon": -69.80755318949853, "alt_km": 1009.7094869506955, "timestamp": "2025-12-13T08:49:16.085674+00:00", "meta": {"OBJECT_NAME": "COSMOS 2251 DEB", "OBJECT_ID": "1993-036PN", "EPOCH": "2025-12-12T22:52:02.694144", "MEAN_MOTION": 13.79572172, "ECCENTRICITY": 0.02826247, "INCLINATION": 74.0793, "RA_OF_ASC_NODE": 307.6312, "ARG_OF_PERICENTER": 55.3647, "MEAN_ANOMALY": 1.2716, "EPHEMERIS_TYPE": 0, "CLASSIFICATION_TYPE": "U", "NORAD_CAT_ID": 34340, "ELEMENT_SET_NO": 999, "REV_AT_EPOCH": 84271, "BSTAR": 0.0021110906, "MEAN_MOTION_DOT": 2.916e-05, "MEAN_MOTION_DDOT": 0}, "tle": {"line1": "1 34340U 93036PN  25346.95280896  .00002916  00000+0  21111-2 0  9997", "line2": "2 34340  74.0793 307.6312 0282624  55.3647   1.2716 13.79572172842715"}}, "geometry": {"type": "Point", "coordinates": [-69.80755318949853, -45.270889561840846]}}, {"type": "Feature", "properties": {"norad_id": 34343, "name": "COSMOS 2251 DEB", "group": "cosmos-2251-debris", "lat": -48.78807067524084, "lon": -72.56394977168733, "alt_km": 680.2162821474321, "timestamp": "2025-12-13T08:49:16.085684+00:00", "meta": {"OBJECT_NAME": "COSMOS 2251 DEB", "OBJECT_ID": "1993-036PR", "EPOCH": "2025-12-13T00:07:15.181248", "MEAN_MOTION": 14.69451184, "ECCENTRICITY": 0.00234462, "INCLINATION": 74.0196, "RA_OF_ASC_NODE": 89.0395, "ARG_OF_PERICENTER": 3.6828, "MEAN_ANOMALY": 111.0344, "EPHEMERIS_TYPE": 0, "CLASSIFICATION_TYPE": "U", "NORAD_CAT_ID": 34343, "ELEMENT_SET_NO": 999, "REV_AT_EPOCH": 88734, "BSTAR": 0.0021877775, "MEAN_MOTION_DOT": 0.00013006, "MEAN_MOTION_DDOT": 0}, "tle": {"line1": "1 34343U 93036PR  25347.00503682  .00013006  00000+0  21878-2 0  9990", "line2": "2 34343  74.0196  89.0395 0023446   3.6828 111.0344 14.69451184887343"}}, "geometry": {"type": "Point", "coordinates": [-72.56394977168733, -48.78807067524084]}}, {"type": "Feature", "properties": {"norad_id": 34344, "name": "COSMOS 2251 DEB", "group": "cosmos-2251-debris", "lat": -29.92300171011378, "lon": -61.25296161022496, "alt_km": 825.8546232641384, "timestamp": "2025-12-13T08:49:16.085694+00:00", "meta": {"OBJECT_NAME": "COSMOS 2251 DEB", "OBJECT_ID": "1993-036PS", "EPOCH": "2025-12-12T10:02:46.501728", "MEAN_MOTION": 14.1640474, "ECCENTRICITY": 0.01558675, "INCLINATION": 73.9776, "RA_OF_ASC_NODE": 110.9206, "ARG_OF_PERICENTER": 295.1512, "MEAN_ANOMALY": 120.8948, "EPHEMERIS_TYPE": 0, "CLASSIFICATION_TYPE": "U", "NORAD_CAT_ID": 34344, "ELEMENT_SET_NO": 999, "REV_AT_EPOCH": 86092, "BSTAR": 0.0026072598, "MEAN_MOTION_DOT": 5.811e-05, "MEAN_MOTION_DDOT": 0}, "tle": {"line1": "1 34344U 93036PS  25346.41859377  .00005811  00000+0  26073-2 0  9997", "line2": "2 34344  73.9776 110.9206 0155867 295.1512 120.8948 14.16404740860923"}}, "geometry": {"type": "Point", "coordinates": [-61.25296161022496, -29.92300171011378]}}, {"type": "Feature", "properties": {"norad_id": 34346, "name": "COSMOS 2251 DEB", "group": "cosmos-2251-debris", "lat": -65.82702687619135, "lon": -88.59346143837652, "alt_km": 1040.8153538090692, "timestamp": "2025-12-13T08:49:16.085705+00:00", "meta": {"OBJECT_NAME": "COSMOS 2251 DEB", "OBJECT_ID": "1993-036PU", "EPOCH": "2025-12-12T21:18:25.757568", "MEAN_MOTION": 13.99692717, "ECCENTRICITY": 0.02062227, "INCLINATION": 73.9951, "RA_OF_ASC_NODE": 311.9894, "ARG_OF_PERICENTER": 130.8859, "MEAN_ANOMALY": 260.1529, "EPHEMERIS_TYPE": 0, "CLASSIFICATION_TYPE": "U", "NORAD_CAT_ID": 34346, "ELEMENT_SET_NO": 999, "REV_AT_EPOCH": 85412, "BSTAR": 0.0013910542, "MEAN_MOTION_DOT": 2.422e-05, "MEAN_MOTION_DDOT": 0}, "tle": {"line1": "1 34346U 93036PU  25346.88779812  .00002422  00000+0  13911-2 0  9997", "line2": "2 34346  73.9951 311.9894 0206222 130.8859 260.1529 13.99692717854128"}}, "geometry": {"type": "Point", "coordinates": [-88.59346143837652, -65.82702687619135]}}, {"type": "Feature", "properties": {"norad_id": 34383, "name": "COSMOS 2251 DEB", "group": "cosmos-2251-debris", "lat": 11.433281750190266, "lon": -60.27109641588451, "alt_km": 538.6612690335169, "timestamp": "2025-12-13T08:49:16.085715+00:00", "meta": {"OBJECT_NAME": "COSMOS 2251 DEB", "OBJECT_ID": "1993-036PY", "EPOCH": "2025-12-12T23:31:54.648768", "MEAN_MOTION": 15.09032369, "ECCENTRICITY": 0.00023954, "INCLINATION": 74.0222, "RA_OF_ASC_NODE": 297.205, "ARG_OF_PERICENTER": 43.4353, "MEAN_ANOMALY": 26.7859, "EPHEMERIS_TYPE": 0, "CLASSIFICATION_TYPE": "U", "NORAD_CAT_ID": 34383, "ELEMENT_SET_NO": 999, "REV_AT_EPOCH": 89117, "BSTAR": 0.0039667132, "MEAN_MOTION_DOT": 0.00063313, "MEAN_MOTION_DDOT": 0}, "tle": {"line1": "1 34383U 93036PY  25346.98049362  .00063313  00000+0  39667-2 0  9991", "line2": "2 34383  74.0222 297.2050 0002395  43.4353  26.7859 15.09032369891177"}}, "geometry": {"type": "Point", "coordinates": [-60.27109641588451, 11.433281750190266]}}, {"type": "Feature", "properties": {"norad_id": 34387, "name": "COSMOS 2251 DEB", "group": "cosmos-2251-debris", "lat": 18.243542183101262, "lon": 25.316478731170605, "alt_km": 768.9182517053268, "timestamp": "2025-12-13T08:49:16.085780+00:00", "meta": {"OBJECT_NAME": "COSMOS 2251 DEB", "OBJECT_ID": "1993-036QC", "EPOCH": "2025-12-12T22:10:00.083712", "MEAN_MOTION": 14.43821195, "ECCENTRICITY": 0.00387815, "INCLINATION": 74.0401, "RA_OF_ASC_NODE": 211.5541, "ARG_OF_PERICENTER": 308.4592, "MEAN_ANOMALY": 66.1437, "EPHEMERIS_TYPE": 0, "CLASSIFICATION_TYPE": "U", "NORAD_CAT_ID": 34387, "ELEMENT_SET_NO": 999, "REV_AT_EPOCH": 88184, "BSTAR": 0.00043482305, "MEAN_MOTION_DOT": 1.467e-05, "MEAN_MOTION_DDOT": 0}, "tle": {"line1": "1 34387U 93036QC  25346.92361208  .00001467  00000+0  43482-3 0  9998", "line2": "2 34387  74.0401 211.5541 0038781 308.4592  66.1437 14.43821195881844"}}, "geometry": {"type": "Point", "coordinates": [25.316478731170605, 18.243542183101262]}}, {"type": "Feature", "properties": {"norad_id": 34388, "name": "COSMOS 2251 DEB", "group": "cosmos-2251-debris", "lat": 22.874914181774056, "lon": 34.99251197248849, "alt_km": 731.0002791188999, "timestamp": "2025-12-13T08:49:16.085804+00:00", "meta": {"OBJECT_NAME": "COSMOS 2251 DEB", "OBJECT_ID": "1993-036QD", "EPOCH": "2025-12-12T22:14:05.300736", "MEAN_MOTION": 14.49367683, "ECCENTRICITY": 0.001407, "INCLINATION": 74.0391, "RA_OF_ASC_NODE": 222.7546, "ARG_OF_PERICENTER": 270.9215, "MEAN_ANOMALY": 104.6872, "EPHEMERIS_TYPE": 0, "CLASSIFICATION_TYPE": "U", "NORAD_CAT_ID": 34388, "ELEMENT_SET_NO": 999, "REV_AT_EPOCH": 88158, "BSTAR": 0.001052173, "MEAN_MOTION_DOT": 4.001e-05, "MEAN_MOTION_DDOT": 0}, "tle": {"line1": "1 34388U 93036QD  25346.92645024  .00004001  00000+0  10522-2 0  9995", "line2": "2 34388  74.0391 222.7546 0014070 270.9215 104.6872 14.49367683881587"}}, "geometry": {"type": "Point", "coordinates": [34.99251197248849, 22.874914181774056]}}, {"type": "Feature", "properties": {"norad_id": 34389, "name": "COSMOS 2251 DEB", "group": "cosmos-2251-debris", "lat": 18.062759500836624, "lon": 63.28787068219583, "alt_km": 772.8652995368866, "timestamp": "2025-12-13T08:49:16.085816+00:00", "meta": {"OBJECT_NAME": "COSMOS 2251 DEB", "OBJECT_ID": "1993-036QE", "EPOCH": "2025-12-12T19:02:17.990592", "MEAN_MOTION": 14.41534252, "ECCENTRICITY": 0.00289185, "INCLINATION": 74.0193, "RA_OF_ASC_NODE": 249.7149, "ARG_OF_PERICENTER": 1.7676, "MEAN_ANOMALY": 60.1425, "EPHEMERIS_TYPE": 0, "CLASSIFICATION_TYPE": "U", "NORAD_CAT_ID": 34389, "ELEMENT_SET_NO": 999, "REV_AT_EPOCH": 88013, "BSTAR": 0.00062840955, "MEAN_MOTION_DOT": 2.026e-05, "MEAN_MOTION_DDOT": 0}, "tle": {"line1": "1 34389U 93036QE  25346.79326378  .00002026  00000+0  62841-3 0  9996", "line2": "2 34389  74.0193 249.7149 0028918   1.7676  60.1425 14.41534252880133"}}, "geometry": {"type": "Point", "coordinates": [63.28787068219583, 18.062759500836624]}}, {"type": "Feature", "properties": {"norad_id": 34396, "name": "COSMOS 2251 DEB", "group": "cosmos-2251-debris", "lat": 19.5930756751874, "lon": -63.043920802393735, "alt_km": 642.5175761094079, "timestamp": "2025-12-13T08:49:16.085827+00:00", "meta": {"OBJECT_NAME": "COSMOS 2251 DEB", "OBJECT_ID": "1993-036QM", "EPOCH": "2025-12-12T19:45:45.535680", "MEAN_MOTION": 14.74426427, "ECCENTRICITY": 0.00059552, "INCLINATION": 74.0292, "RA_OF_ASC_NODE": 123.8692, "ARG_OF_PERICENTER": 164.5248, "MEAN_ANOMALY": 348.071, "EPHEMERIS_TYPE": 0, "CLASSIFICATION_TYPE": "U", "NORAD_CAT_ID": 34396, "ELEMENT_SET_NO": 999, "REV_AT_EPOCH": 88347, "BSTAR": 0.0033309359, "MEAN_MOTION_DOT": 0.00022162, "MEAN_MOTION_DDOT": 0}, "tle": {"line1": "1 34396U 93036QM  25346.82344370  .00022162  00000+0  33309-2 0  9999", "line2": "2 34396  74.0292 123.8692 0005955 164.5248 348.0710 14.74426427883470"}}, "geometry": {"type": "Point", "coordinates": [-63.043920802393735, 19.5930756751874]}}]}